NORAD_CAT_ID,OBJECT_NAME,OBJECT_TYPE,EPOCH,MEAN_MOTION,ECCENTRICITY,INCLINATION,RA_OF_ASC_NODE,ARG_OF_PERICENTER,MEAN_ANOMALY,BSTAR,MEAN_MOTION_DOT,MEAN_MOTION_DDOT,TLE_LINE0,TLE_LINE1,TLE_LINE2,SEMIMAJOR_AXIS,PERIOD,APOGEE,PERIGEE,DECAYED
53264.0,STARLINK-3950,PAYLOAD,2024-06-04 19:30:36,15.08845101,0.0001253,53.2155,200.1069,85.9869,274.1266,5.4724e-05,5.83e-06,0.0,0 STARLINK-3950,1 53264U 22086Y   24156.81292545  .00000583  00000-0  54724-4 0  9994,2 53264  53.2155 200.1069 0001253  85.9869 274.1266 15.08845101104014,6917.865,95.437,540.597,538.863,0.0
53264.0,STARLINK-3950,PAYLOAD,2024-06-05 03:27:33,15.08837089,0.0001568,53.2153,198.6181,70.7751,289.3411,2.7779e-05,1.54e-06,0.0,0 STARLINK-3950,1 53264U 22086Y   24157.14413310  .00000154  00000-0  27779-4 0  9990,2 53264  53.2153 198.6181 0001568  70.7751 289.3411 15.08837089103889,6917.889,95.438,540.839,538.67,0.0
53264.0,STARLINK-3950,PAYLOAD,2024-06-05 09:49:05,15.08836354,0.0001294,53.2162,197.432,85.0379,275.0761,3.5854e-05,2.83e-06,0.0,0 STARLINK-3950,1 53264U 22086Y   24157.40909361  .00000283  00000-0  35854-4 0  9991,2 53264  53.2162 197.4320 0001294  85.0379 275.0761 15.08836354104102,6917.892,95.438,540.652,538.861,0.0
53264.0,STARLINK-3950,PAYLOAD,2024-06-05 19:21:24,15.08835105,0.0001188,53.2149,195.6463,78.4721,281.6404,2.6299e-05,1.31e-06,0.0,0 STARLINK-3950,1 53264U 22086Y   24157.80653597  .00000131  00000-0  26299-4 0  9997,2 53264  53.2149 195.6463 0001188  78.4721 281.6404 15.08835105104160,6917.895,95.438,540.582,538.939,0.0
53264.0,STARLINK-3950,PAYLOAD,2024-06-06 09:39:52,15.0884026,0.0001319,53.2161,192.9725,90.4157,269.6987,-1.2965e-05,-4.94e-06,0.0,0 STARLINK-3950,1 53264U 22086Y   24158.40269522 -.00000494  00000-0 -12965-4 0  9994,2 53264  53.2161 192.9725 0001319  90.4157 269.6987 15.08840260104078,6917.88,95.438,540.657,538.832,0.0
53264.0,STARLINK-3950,PAYLOAD,2024-06-07 09:30:40,15.08836795,0.0001345,53.216,188.5119,88.6003,271.5144,6.5633e-05,7.57e-06,0.0,0 STARLINK-3950,1 53264U 22086Y   24159.39629771  .00000757  00000-0  65633-4 0  9999,2 53264  53.2160 188.5119 0001345  88.6003 271.5144 15.08836795104405,6917.89,95.438,540.686,538.825,0.0
53264.0,STARLINK-3950,PAYLOAD,2024-06-08 01:24:31,15.08840004,0.0001326,53.2154,185.5374,87.7159,272.3985,0.00011056,1.472e-05,0.0,0 STARLINK-3950,1 53264U 22086Y   24160.05869547  .00001472  00000-0  11056-3 0  9995,2 53264  53.2154 185.5374 0001326  87.7159 272.3985 15.08840004104320,6917.88,95.438,540.663,538.828,0.0
53264.0,STARLINK-3950,PAYLOAD,2024-06-08 09:21:26,15.08843911,0.0001339,53.2157,184.0502,85.0077,275.1068,9.2802e-05,1.189e-05,0.0,0 STARLINK-3950,1 53264U 22086Y   24160.38989441  .00001189  00000-0  92802-4 0  9991,2 53264  53.2157 184.0502 0001339  85.0077 275.1068 15.08843911104552,6917.868,95.437,540.66,538.807,0.0
53264.0,STARLINK-3950,PAYLOAD,2024-06-08 18:53:45,15.08843567,0.0001343,53.2156,182.2659,85.1413,274.9733,8.8951e-05,1.128e-05,0.0,0 STARLINK-3950,1 53264U 22086Y   24160.78733403  .00001128  00000-0  88951-4 0  9993,2 53264  53.2156 182.2659 0001343  85.1413 274.9733 15.08843567104614,6917.869,95.437,540.664,538.805,0.0
53264.0,STARLINK-3950,PAYLOAD,2024-06-09 07:36:50,15.08843199,0.0001382,53.2162,179.8862,89.1597,270.9553,6.7634e-05,7.89e-06,0.0,0 STARLINK-3950,1 53264U 22086Y   24161.31725513  .00000789  00000-0  67634-4 0  9993,2 53264  53.2162 179.8862 0001382  89.1597 270.9553 15.08843199104515,6917.871,95.437,540.692,538.78,0.0
53264.0,STARLINK-3950,PAYLOAD,2024-06-09 18:44:32,15.08842223,0.0001375,53.2162,177.8048,88.4642,271.6507,5.7213e-05,6.23e-06,0.0,0 STARLINK-3950,1 53264U 22086Y   24161.78093534  .00000623  00000-0  57213-4 0  9994,2 53264  53.2162 177.8048 0001375  88.4642 271.6507 15.08842223104765,6917.874,95.437,540.69,538.787,0.0
53264.0,STARLINK-3950,PAYLOAD,2024-06-10 04:16:51,15.08839535,0.0001409,53.2164,176.0205,90.4926,269.6227,8.9371e-06,-1.46e-06,0.0,0 STARLINK-3950,1 53264U 22086Y   24162.17837830 -.00000146  00000-0  89371-5 0  9995,2 53264  53.2164 176.0205 0001409  90.4926 269.6227 15.08839535104644,6917.882,95.438,540.722,538.772,0.0
53264.0,STARLINK-3950,PAYLOAD,2024-06-10 07:27:38,15.0883967,0.0001413,53.2163,175.4258,90.3529,269.7625,7.2764e-06,-1.72e-06,0.0,0 STARLINK-3950,1 53264U 22086Y   24162.31085798 -.00000172  00000-0  72764-5 0  9996,2 53264  53.2163 175.4258 0001413  90.3529 269.7625 15.08839670104842,6917.881,95.438,540.724,538.769,0.0
53264.0,STARLINK-3950,PAYLOAD,2024-06-11 05:43:02,15.08838735,0.0001428,53.2163,171.2621,92.2382,267.8774,1.6199e-05,-3e-07,0.0,0 STARLINK-3950,1 53264U 22086Y   24163.23821842 -.00000030  00000-0  16199-4 0  9998,2 53264  53.2163 171.2621 0001428  92.2382 267.8774 15.08838735104805,6917.884,95.438,540.737,538.761,0.0
53264.0,STARLINK-3950,PAYLOAD,2024-06-11 07:18:25,15.08839369,0.0001426,53.2163,170.9655,89.1887,270.9268,2.4407e-05,1.01e-06,0.0,0 STARLINK-3950,1 53264U 22086Y   24163.30445796  .00000101  00000-0  24407-4 0  9995,2 53264  53.2163 170.9655 0001426  89.1887 270.9268 15.08839369104998,6917.882,95.438,540.734,538.761,0.0
53264.0,STARLINK-3950,PAYLOAD,2024-06-12 07:09:11,15.08841159,0.0001367,53.216,166.5055,88.7698,271.3451,8.9721e-05,1.14e-05,0.0,0 STARLINK-3950,1 53264U 22086Y   24164.29805514  .00001140  00000-0  89721-4 0  9996,2 53264  53.2160 166.5055 0001367  88.7698 271.3451 15.08841159104965,6917.877,95.437,540.688,538.796,0.0
53264.0,STARLINK-3950,PAYLOAD,2024-06-12 16:41:31,15.08837628,0.0001279,53.2153,164.7214,86.7062,273.4076,5.3621e-05,5.66e-06,0.0,0 STARLINK-3950,1 53264U 22086Y   24164.69549824  .00000566  00000-0  53621-4 0  9990,2 53264  53.2153 164.7214 0001279  86.7062 273.4076 15.08837628105209,6917.888,95.438,540.637,538.868,0.0
53264.0,STARLINK-3950,PAYLOAD,2024-06-13 05:24:36,15.08835038,0.0001363,53.2163,162.3432,88.6875,271.4273,5.4899e-06,-2.01e-06,0.0,0 STARLINK-3950,1 53264U 22086Y   24165.22542304 -.00000201  00000-0  54899-5 0  9992,2 53264  53.2163 162.3432 0001363  88.6875 271.4273 15.08835038105102,6917.896,95.438,540.703,538.818,0.0
53264.0,STARLINK-3950,PAYLOAD,2024-06-13 16:32:18,15.08836044,0.0001371,53.2163,160.2616,88.6232,271.4917,1.3819e-07,-2.86e-06,0.0,0 STARLINK-3950,1 53264U 22086Y   24165.68910340 -.00000286  00000-0  13819-6 0  9992,2 53264  53.2163 160.2616 0001371  88.6232 271.4917 15.08836044105359,6917.892,95.438,540.706,538.809,0.0
53264.0,STARLINK-3950,PAYLOAD,2024-06-14 05:15:23,15.08834992,0.000136,53.2163,157.8842,95.7901,264.3246,-3.8597e-06,-3.49e-06,0.0,0 STARLINK-3950,1 53264U 22086Y   24166.21902555 -.00000349  00000-0 -38597-5 0  9991,2 53264  53.2163 157.8842 0001360  95.7901 264.3246 15.08834992105437,6917.896,95.438,540.702,538.82,0.0
53264.0,STARLINK-3950,PAYLOAD,2024-06-15 06:41:33,15.08837835,0.0001386,53.2167,153.1239,88.77,271.3451,7.0679e-05,8.37e-06,0.0,0 STARLINK-3950,1 53264U 22086Y   24167.27886438  .00000837  00000-0  70679-4 0  9995,2 53264  53.2167 153.1239 0001386  88.7700 271.3451 15.08837835105599,6917.887,95.438,540.711,538.793,0.0
53264.0,STARLINK-3950,PAYLOAD,2024-06-15 16:13:52,15.08839394,0.0001424,53.217,151.3394,87.8409,272.2746,7.5773e-05,9.18e-06,0.0,0 STARLINK-3950,1 53264U 22086Y   24167.67630396  .00000918  00000-0  75773-4 0  9999,2 53264  53.2170 151.3394 0001424  87.8409 272.2746 15.08839394105650,6917.882,95.438,540.732,538.762,0.0
53264.0,STARLINK-3950,PAYLOAD,2024-06-16 06:32:20,15.08844724,0.0001401,53.2165,148.6633,88.3039,271.8114,0.00011511,1.545e-05,0.0,0 STARLINK-3950,1 53264U 22086Y   24168.27245943  .00001545  00000-0  11511-3 0  9992,2 53264  53.2165 148.6633 0001401  88.3039 271.8114 15.08844724105746,6917.866,95.437,540.7,538.762,0.0
53264.0,STARLINK-3950,PAYLOAD,2024-06-16 22:26:12,15.08841027,0.0001466,53.2163,145.6914,86.0669,274.0491,3.238e-05,2.27e-06,0.0,0 STARLINK-3950,1 53264U 22086Y   24168.93486400  .00000227  00000-0  32380-4 0  9994,2 53264  53.2163 145.6914 0001466  86.0669 274.0491 15.08841027105845,6917.877,95.437,540.756,538.728,0.0
53264.0,STARLINK-3950,PAYLOAD,2024-06-17 07:58:30,15.08844806,0.0001486,53.2164,143.907,86.7591,273.3571,6.2836e-05,7.12e-06,0.0,0 STARLINK-3950,1 53264U 22086Y   24169.33230146  .00000712  00000-0  62836-4 0  9991,2 53264  53.2164 143.9070 0001486  86.7591 273.3571 15.08844806105909,6917.866,95.437,540.759,538.703,0.0
53264.0,STARLINK-3950,PAYLOAD,2024-06-18 07:49:18,15.0883902,0.0001568,53.2167,139.444,98.5413,261.5757,-5.5798e-06,-3.77e-06,0.0,0 STARLINK-3950,1 53264U 22086Y   24170.32590507 -.00000377  00000-0 -55798-5 0  9991,2 53264  53.2167 139.4440 0001568  98.5413 261.5757 15.08839020105871,6917.883,95.438,540.833,538.664,0.0
53264.0,STARLINK-3950,PAYLOAD,2024-06-19 07:40:05,15.08833379,0.0001392,53.2165,134.9825,90.1405,269.9747,-3.4267e-05,-8.33e-06,0.0,0 STARLINK-3950,1 53264U 22086Y   24171.31951212 -.00000833  00000-0 -34267-4 0  9999,2 53264  53.2165 134.9825 0001392  90.1405 269.9747 15.08833379106020,6917.901,95.438,540.729,538.803,0.0
53264.0,STARLINK-3950,PAYLOAD,2024-06-20 04:20:06,15.08839961,0.0001269,53.2161,131.1183,89.8925,270.2212,4.6421e-05,4.51e-06,0.0,0 STARLINK-3950,1 53264U 22086Y   24172.18062805  .00000451  00000-0  46421-4 0  9995,2 53264  53.2161 131.1183 0001269  89.8925 270.2212 15.08839961106156,6917.881,95.438,540.623,538.868,0.0
53264.0,STARLINK-3950,PAYLOAD,2024-06-20 07:30:52,15.08841086,0.0001284,53.2161,130.5233,89.8153,270.2986,5.9545e-05,6.6e-06,0.0,0 STARLINK-3950,1 53264U 22086Y   24172.31310695  .00000660  00000-0  59545-4 0  9996,2 53264  53.2161 130.5233 0001284  89.8153 270.2986 15.08841086106356,6917.877,95.437,540.63,538.854,0.0
53264.0,STARLINK-3950,PAYLOAD,2024-06-21 02:35:30,15.08833749,0.0001246,53.2159,126.9544,87.7094,272.4041,1.8259e-05,3e-08,0.0,0 STARLINK-3950,1 53264U 22086Y   24173.10799565  .00000003  00000-0  18259-4 0  9999,2 53264  53.2159 126.9544 0001246  87.7094 272.4041 15.08833749106292,6917.899,95.438,540.626,538.903,0.0
